OBJECT_NAME,OBJECT_ID,EPOCH,MEAN_MOTION,ECCENTRICITY,INCLINATION,RA_OF_ASC_NODE,ARG_OF_PERICENTER,MEAN_ANOMALY,EPHEMERIS_TYPE,CLASSIFICATION_TYPE,NORAD_CAT_ID,ELEMENT_SET_NO,REV_AT_EPOCH,BSTAR,MEAN_MOTION_DOT,MEAN_MOTION_DDOT
STARLINK-30915,2023-178G,2024-09-23T04:54:18.339552,15.39616372,.0001374,53.1627,233.6686,88.2341,271.8821,0,U,58380,999,4936,.548E-4,.1793E-4,0
STARLINK-30923,2023-178H,2024-09-23T10:04:54.046272,15.34215152,.0001298,53.1589,315.1396,75.8202,284.2945,0,U,58381,999,4830,.51575E-3,.16987E-3,0
STARLINK-30927,2023-178J,2024-09-23T13:45:56.525760,15.34222085,.000125,53.1579,314.0071,93.1358,266.9788,0,U,58382,999,4838,.45512E-4,.1154E-4,0
STARLINK-30921,2023-178K,2024-09-23T10:11:37.613760,15.34224549,.0001414,53.1578,315.2143,90.7231,269.3933,0,U,58383,999,4835,.92419E-4,.2731E-4,0
STARLINK-30929,2023-178N,2024-09-23T10:22:57.697536,15.30186070,.000125,53.1590,313.6368,84.0134,276.1009,0,U,58386,999,4837,-.13147E-4,-.748E-5,0
STARLINK-30898,2023-178P,2024-09-23T10:18:11.795616,15.34209815,.0001174,53.1595,314.3965,68.8619,291.2509,0,U,58387,999,4838,.1108E-4,-.3E-7,0
STARLINK-30868,2023-178S,2024-09-23T09:51:58.143168,15.34219204,.0001287,53.1598,315.1215,77.3439,282.7708,0,U,58390,999,4837,.1529E-4,.138E-5,0
STARLINK-30916,2023-178T,2024-09-23T12:25:32.276352,15.34223012,.000151,53.1597,314.2650,96.9414,263.1760,0,U,58391,999,4839,.35191E-4,.807E-5,0
STARLINK-30937,2023-178U,2024-09-23T12:05:24.410400,15.34227307,.0001315,53.1592,314.1902,113.1335,246.9806,0,U,58392,999,4839,.10983E-4,-.7E-7,0
STARLINK-30934,2023-178X,2024-09-23T10:24:55.470240,15.34224048,.0001252,53.1608,314.6289,87.6789,272.4357,0,U,58395,999,4831,.3263E-4,.721E-5,0
STARLINK-30964,2023-180A,2024-09-23T12:02:22.469280,15.02537696,.0001552,43.0051,67.4915,268.2033,91.8631,0,U,58402,999,4753,.42388E-4,.369E-5,0
STARLINK-30844,2023-180B,2024-09-23T11:48:09.742752,15.02539550,.000194,43.0027,68.2772,257.0835,102.9791,0,U,58403,999,4741,.4232E-3,.5518E-4,0
STARLINK-30925,2023-180E,2024-09-23T11:33:46.988640,15.02536626,.0001302,43.0038,68.1981,278.4322,81.6373,0,U,58406,999,4741,.48147E-3,.6306E-4,0
STARLINK-30954,2023-180F,2024-09-23T11:57:35.025984,15.02536671,.0001146,43.0027,67.4647,289.3645,70.7073,0,U,58407,999,4753,.1198E-3,.1415E-4,0
STARLINK-30906,2023-180G,2024-09-23T12:07:17.959008,15.02551107,.0001585,43.0056,68.2108,269.7753,90.2908,0,U,58408,999,4741,-.16233E-3,-.2397E-4,0
STARLINK-30940,2023-180H,2024-09-23T15:21:56.125152,15.25893410,.0001207,43.0026,25.9769,296.6375,63.4352,0,U,58409,999,4803,-.1249E-3,-.3521E-4,0
STARLINK-30933,2023-180J,2024-09-23T15:19:02.240832,15.25918271,.0001521,43.0023,27.6774,296.9869,63.0826,0,U,58410,999,4801,.47857E-4,.995E-5,0
STARLINK-30919,2023-180K,2024-09-23T13:50:31.939584,15.02532229,.0001161,43.0042,66.2691,269.9057,90.1652,0,U,58411,999,4745,-.85089E-5,-.319E-5,0
STARLINK-30924,2023-180L,2024-09-23T15:15:47.092608,15.25921399,.0000687,43.0003,27.6547,281.4030,78.6744,0,U,58412,999,4801,.10701E-3,.2544E-4,0
