STARLINK-30915          
1 58380U 23178G   24267.20437893  .00001793  00000+0  54800-4 0  9992
2 58380  53.1627 233.6686 0001374  88.2341 271.8821 15.39616372 49369
STARLINK-30923          
1 58381U 23178H   24267.42006998  .00016987  00000+0  51575-3 0  9991
2 58381  53.1589 315.1396 0001298  75.8202 284.2945 15.34215152 48308
STARLINK-30927          
1 58382U 23178J   24267.57357090  .00001154  00000+0  45512-4 0  9995
2 58382  53.1579 314.0071 0001250  93.1358 266.9788 15.34222085 48382
STARLINK-30921          
1 58383U 23178K   24267.42474090  .00002731  00000+0  92419-4 0  9990
2 58383  53.1578 315.2143 0001414  90.7231 269.3933 15.34224549 48353
STARLINK-30929          
1 58386U 23178N   24267.43261224 -.00000748  00000+0 -13147-4 0  9996
2 58386  53.1590 313.6368 0001250  84.0134 276.1009 15.30186070 48371
STARLINK-30898          
1 58387U 23178P   24267.42930319 -.00000003  00000+0  11080-4 0  9991
2 58387  53.1595 314.3965 0001174  68.8619 291.2509 15.34209815 48382
STARLINK-30868          
1 58390U 23178S   24267.41108962  .00000138  00000+0  15290-4 0  9990
2 58390  53.1598 315.1215 0001287  77.3439 282.7708 15.34219204 48374
STARLINK-30916          
1 58391U 23178T   24267.51773468  .00000807  00000+0  35191-4 0  9996
2 58391  53.1597 314.2650 0001510  96.9414 263.1760 15.34223012 48391
STARLINK-30937          
1 58392U 23178U   24267.50375475 -.00000007  00000+0  10983-4 0  9997
2 58392  53.1592 314.1902 0001315 113.1335 246.9806 15.34227307 48394
STARLINK-30934          
1 58395U 23178X   24267.43397535  .00000721  00000+0  32630-4 0  9998
2 58395  53.1608 314.6289 0001252  87.6789 272.4357 15.34224048 48312
STARLINK-30964          
1 58402U 23180A   24267.50164895  .00000369  00000+0  42388-4 0  9998
2 58402  43.0051  67.4915 0001552 268.2033  91.8631 15.02537696 47534
STARLINK-30844          
1 58403U 23180B   24267.49177943  .00005518  00000+0  42320-3 0  9991
2 58403  43.0027  68.2772 0001940 257.0835 102.9791 15.02539550 47414
STARLINK-30925          
1 58406U 23180E   24267.48179385  .00006306  00000+0  48147-3 0  9994
2 58406  43.0038  68.1981 0001302 278.4322  81.6373 15.02536626 47410
STARLINK-30954          
1 58407U 23180F   24267.49832206  .00001415  00000+0  11980-3 0  9995
2 58407  43.0027  67.4647 0001146 289.3645  70.7073 15.02536671 47534
STARLINK-30906          
1 58408U 23180G   24267.50506897 -.00002397  00000+0 -16233-3 0  9990
2 58408  43.0056  68.2108 0001585 269.7753  90.2908 15.02551107 47419
STARLINK-30940          
1 58409U 23180H   24267.64023293 -.00003521  00000+0 -12490-3 0  9991
2 58409  43.0026  25.9769 0001207 296.6375  63.4352 15.25893410 48046
STARLINK-30933          
1 58410U 23180J   24267.63822038  .00000995  00000+0  47857-4 0  9992
2 58410  43.0023  27.6774 0001521 296.9869  63.0826 15.25918271 48023
STARLINK-30919          
1 58411U 23180K   24267.57675856 -.00000319  00000+0 -85089-5 0  9992
2 58411  43.0042  66.2691 0001161 269.9057  90.1652 15.02532229 47455
STARLINK-30924          
1 58412U 23180L   24267.63596172  .00002544  00000+0  10701-3 0  9990
2 58412  43.0003  27.6547 0000687 281.4030  78.6744 15.25921399 48017
